NORAD_CAT_ID,OBJECT_NAME,OBJECT_TYPE,EPOCH,MEAN_MOTION,ECCENTRICITY,INCLINATION,RA_OF_ASC_NODE,ARG_OF_PERICENTER,MEAN_ANOMALY,BSTAR,MEAN_MOTION_DOT,MEAN_MOTION_DDOT,TLE_LINE0,TLE_LINE1,TLE_LINE2,SEMIMAJOR_AXIS,PERIOD,APOGEE,PERIGEE,DECAYED
53570.0,STARLINK-4550,PAYLOAD,2023-05-19 19:18:36,15.08845465,0.0001089,53.2169,334.9198,96.0951,264.0165,0.00010433,1.373e-05,0.0,0 STARLINK-4550,1 53570U 22101AV  23139.80458575  .00001373  00000-0  10433-3 0  9994,2 53570  53.2169 334.9198 0001089  96.0951 264.0165 15.08845465 42414,6917.864,95.437,540.482,538.975,0.0
53570.0,STARLINK-4550,PAYLOAD,2023-05-20 19:09:23,15.08848587,0.0001027,53.215,330.4619,79.2769,280.8339,7.4822e-05,9.03e-06,0.0,0 STARLINK-4550,1 53570U 22101AV  23140.79818454  .00000903  00000-0  74822-4 0  9991,2 53570  53.2150 330.4619 0001027  79.2769 280.8339 15.08848587 41871,6917.854,95.437,540.43,539.009,0.0
53570.0,STARLINK-4550,PAYLOAD,2023-05-21 19:00:11,15.08830344,9.96e-05,53.2149,326.0012,85.2578,274.8528,-3.0006e-05,-7.65e-06,0.0,0 STARLINK-4550,1 53570U 22101AV  23141.79179712 -.00000765  00000-0 -30006-4 0  9993,2 53570  53.2149 326.0012 0000996  85.2578 274.8528 15.08830344 42029,6917.91,95.438,540.464,539.086,0.0
53570.0,STARLINK-4550,PAYLOAD,2023-05-21 22:10:57,15.08831833,0.0001002,53.2151,325.4057,87.6083,272.5024,-1.3801e-05,-5.07e-06,0.0,0 STARLINK-4550,1 53570U 22101AV  23141.92427724 -.00000507  00000-0 -13801-4 0  9995,2 53570  53.2151 325.4057 0001002  87.6083 272.5024 15.08831833 42738,6917.905,95.438,540.464,539.077,0.0
53570.0,STARLINK-4550,PAYLOAD,2023-05-22 12:29:25,15.08843472,9.41e-05,53.2156,322.7295,82.2826,277.8273,0.00013404,1.846e-05,0.0,0 STARLINK-4550,1 53570U 22101AV  23142.52043300  .00001846  00000-0  13404-3 0  9999,2 53570  53.2156 322.7295 0000941  82.2826 277.8273 15.08843472 42820,6917.87,95.437,540.386,539.084,0.0
53570.0,STARLINK-4550,PAYLOAD,2023-05-22 18:50:57,15.08854989,9.65e-05,53.2156,321.5395,84.4405,275.6697,0.0003107,4.662e-05,0.0,0 STARLINK-4550,1 53570U 22101AV  23142.78538718  .00004662  00000-0  31070-3 0  9997,2 53570  53.2156 321.5395 0000965  84.4405 275.6697 15.08854989 42170,6917.835,95.437,540.367,539.032,0.0
53570.0,STARLINK-4550,PAYLOAD,2023-05-22 22:01:43,15.08858395,9.71e-05,53.2158,320.9441,85.3952,274.7151,0.00048866,7.502e-05,0.0,0 STARLINK-4550,1 53570U 22101AV  23142.91786748  .00007502  00000-0  48866-3 0  9997,2 53570  53.2158 320.9441 0000971  85.3952 274.7151 15.08858395 42889,6917.824,95.436,540.361,539.017,0.0
53570.0,STARLINK-4550,PAYLOAD,2023-05-23 02:47:53,15.08830463,0.0001183,53.2157,320.0518,91.9251,268.1877,2.9298e-07,-2.83e-06,0.0,0 STARLINK-4550,1 53570U 22101AV  23143.11659633 -.00000283  00000-0  29298-6 0  9993,2 53570  53.2157 320.0518 0001183  91.9251 268.1877 15.08830463 42221,6917.91,95.438,540.593,538.956,0.0
53570.0,STARLINK-4550,PAYLOAD,2023-05-23 12:20:12,15.0884495,9.43e-05,53.216,318.2675,99.685,260.4249,0.00017557,2.508e-05,0.0,0 STARLINK-4550,1 53570U 22101AV  23143.51403337  .00002508  00000-0  17557-3 0  9998,2 53570  53.2160 318.2675 0000943  99.6850 260.4249 15.08844950 42281,6917.865,95.437,540.383,539.078,0.0
53570.0,STARLINK-4550,PAYLOAD,2023-05-23 21:52:31,15.08845852,8.75e-05,53.216,316.4842,102.1028,258.0062,0.0011757,0.00018476,0.0,0 STARLINK-4550,1 53570U 22101AV  23143.91147302  .00018476  00000-0  11757-2 0  9995,2 53570  53.2160 316.4842 0000875 102.1028 258.0062 15.08845852 43030,6917.863,95.437,540.333,539.122,0.0
53570.0,STARLINK-4550,PAYLOAD,2023-05-24 02:38:40,15.08837119,8.33e-05,53.216,315.5913,111.8163,248.2917,0.00021428,3.124e-05,0.0,0 STARLINK-4550,1 53570U 22101AV  23144.11019406  .00003124  00000-0  21428-3 0  9992,2 53570  53.2160 315.5913 0000833 111.8163 248.2917 15.08837119 42373,6917.889,95.438,540.33,539.178,0.0
53570.0,STARLINK-4550,PAYLOAD,2023-05-24 15:21:46,15.08842663,8.69e-05,53.2159,313.2127,97.819,262.2901,0.00050986,7.836e-05,0.0,0 STARLINK-4550,1 53570U 22101AV  23144.64011592  .00007836  00000-0  50986-3 0  9993,2 53570  53.2159 313.2127 0000869  97.8190 262.2901 15.08842663 43140,6917.872,95.437,540.338,539.136,0.0
53570.0,STARLINK-4550,PAYLOAD,2023-05-25 18:23:19,15.08850983,7.74e-05,53.2157,308.158,91.2761,268.832,0.00062579,9.689e-05,0.0,0 STARLINK-4550,1 53570U 22101AV  23145.76619510  .00009689  00000-0  62579-3 0  9990,2 53570  53.2157 308.1580 0000774  91.2761 268.8320 15.08850983 42624,6917.847,95.437,540.247,539.176,0.0
53570.0,STARLINK-4550,PAYLOAD,2023-05-25 19:58:42,15.08853521,8.33e-05,53.2155,307.8603,89.7846,270.3241,0.00067073,0.00010407,0.0,0 STARLINK-4550,1 53570U 22101AV  23145.83243428  .00010407  00000-0  67073-3 0  9993,2 53570  53.2155 307.8603 0000833  89.7846 270.3241 15.08853521 43325,6917.839,95.437,540.28,539.128,0.0
53570.0,STARLINK-4550,PAYLOAD,2023-05-26 10:17:10,15.08845419,0.0001336,53.215,305.1837,125.1631,234.9486,0.00032557,4.898e-05,0.0,0 STARLINK-4550,1 53570U 22101AV  23146.42859409  .00004898  00000-0  32557-3 0  9997,2 53570  53.2150 305.1837 0001336 125.1631 234.9486 15.08845419 43410,6917.864,95.437,540.653,538.805,0.0
53570.0,STARLINK-4550,PAYLOAD,2023-05-26 19:49:29,15.08846653,8.21e-05,53.2158,303.3997,85.958,274.1506,0.00021687,3.166e-05,0.0,0 STARLINK-4550,1 53570U 22101AV  23146.82603508  .00003166  00000-0  21687-3 0  9997,2 53570  53.2158 303.3997 0000821  85.9580 274.1506 15.08846653 43475,6917.86,95.437,540.293,539.157,0.0
53570.0,STARLINK-4550,PAYLOAD,2023-05-27 10:07:58,15.0883764,0.0001006,53.2151,300.7236,79.8917,280.2189,4.876e-05,4.88e-06,0.0,0 STARLINK-4550,1 53570U 22101AV  23147.42219978  .00000488  00000-0  48760-4 0  9994,2 53570  53.2151 300.7236 0001006  79.8917 280.2189 15.08837640 42871,6917.888,95.438,540.449,539.057,0.0
53570.0,STARLINK-4550,PAYLOAD,2023-05-27 16:29:30,15.0884027,8.76e-05,53.2149,299.5343,85.9925,274.1167,7.3662e-05,8.85e-06,0.0,0 STARLINK-4550,1 53570U 22101AV  23147.68715881  .00000885  00000-0  73662-4 0  9996,2 53570  53.2149 299.5343 0000876  85.9925 274.1167 15.08840270 43606,6917.88,95.438,540.351,539.139,0.0
53570.0,STARLINK-4550,PAYLOAD,2023-05-28 03:37:12,15.0884275,8.56e-05,53.2149,297.4528,83.2353,276.8736,0.00016274,2.303e-05,0.0,0 STARLINK-4550,1 53570U 22101AV  23148.15083884  .00002303  00000-0  16274-3 0  9992,2 53570  53.2149 297.4528 0000856  83.2353 276.8736 15.08842750 43675,6917.872,95.437,540.329,539.145,0.0
53570.0,STARLINK-4550,PAYLOAD,2023-05-28 16:20:17,15.08847952,8.81e-05,53.2154,295.0726,87.8898,272.2195,0.00018446,2.65e-05,0.0,0 STARLINK-4550,1 53570U 22101AV  23148.68075600  .00002650  00000-0  18446-3 0  9995,2 53570  53.2154 295.0726 0000881  87.8898 272.2195 15.08847952 43068,6917.856,95.437,540.331,539.112,0.0
53570.0,STARLINK-4550,PAYLOAD,2023-05-29 09:49:31,15.08842434,8.93e-05,53.215,291.8019,84.8734,275.236,0.00014363,1.999e-05,0.0,0 STARLINK-4550,1 53570U 22101AV  23149.40939808  .00001999  00000-0  14363-3 0  9994,2 53570  53.2150 291.8019 0000893  84.8734 275.2360 15.08842434 43171,6917.873,95.437,540.356,539.12,0.0
53570.0,STARLINK-4550,PAYLOAD,2023-05-29 14:35:41,15.08841844,8.87e-05,53.2152,290.9098,84.4138,275.6955,0.00011706,1.576e-05,0.0,0 STARLINK-4550,1 53570U 22101AV  23149.60811791  .00001576  00000-0  11706-3 0  9995,2 53570  53.2152 290.9098 0000887  84.4138 275.6955 15.08841844 43894,6917.875,95.437,540.353,539.126,0.0
53570.0,STARLINK-4550,PAYLOAD,2023-05-29 16:11:04,15.08844293,8.93e-05,53.2153,290.6118,88.0283,272.0812,0.00014521,2.024e-05,0.0,0 STARLINK-4550,1 53570U 22101AV  23149.67435636  .00002024  00000-0  14521-3 0  9999,2 53570  53.2153 290.6118 0000893  88.0283 272.0812 15.08844293 43909,6917.867,95.437,540.35,539.115,0.0
53570.0,STARLINK-4550,PAYLOAD,2023-05-30 09:40:19,15.08838832,8.34e-05,53.2151,287.3419,85.3391,274.7697,5.5584e-06,-1.99e-06,0.0,0 STARLINK-4550,1 53570U 22101AV  23150.40299846 -.00000199  00000-0  55584-5 0  9991,2 53570  53.2151 287.3419 0000834  85.3391 274.7697 15.08838832 43327,6917.884,95.438,540.326,539.172,0.0
53570.0,STARLINK-4550,PAYLOAD,2023-05-30 16:01:51,15.08841545,8.37e-05,53.2159,286.1525,84.5996,275.5092,5.8885e-05,6.5e-06,0.0,0 STARLINK-4550,1 53570U 22101AV  23150.66795820  .00000650  00000-0  58885-4 0  9999,2 53570  53.2159 286.1525 0000837  84.5996 275.5092 15.08841545 44059,6917.876,95.437,540.32,539.162,0.0
53570.0,STARLINK-4550,PAYLOAD,2023-05-31 14:17:15,15.08839783,0.0001006,53.218,281.9932,101.818,258.2925,9.6171e-05,1.243e-05,0.0,0 STARLINK-4550,1 53570U 22101AV  23151.59531909  .00001243  00000-0  96171-4 0  9997,2 53570  53.2180 281.9932 0001006 101.8180 258.2925 15.08839783 44194,6917.881,95.438,540.442,539.05,0.0
53570.0,STARLINK-4550,PAYLOAD,2023-05-31 15:52:38,15.08840269,0.0001013,53.2179,281.6957,106.995,253.1153,9.1823e-05,1.174e-05,0.0,0 STARLINK-4550,1 53570U 22101AV  23151.66155882  .00001174  00000-0  91823-4 0  9999,2 53570  53.2179 281.6957 0001013 106.9950 253.1153 15.08840269 43518,6917.88,95.438,540.445,539.044,0.0
53570.0,STARLINK-4550,PAYLOAD,2023-06-01 01:24:57,15.08840562,9.87e-05,53.2178,279.9119,104.4666,255.6436,1.92e-06,-2.57e-06,0.0,0 STARLINK-4550,1 53570U 22101AV  23152.05900082 -.00000257  00000-0  19200-5 0  9995,2 53570  53.2178 279.9119 0000987 104.4666 255.6436 15.08840562 44263,6917.879,95.438,540.426,539.061,0.0
53570.0,STARLINK-4550,PAYLOAD,2023-06-02 01:15:44,15.08845155,7.95e-05,53.2161,275.4481,80.119,279.9892,9.4345e-05,1.214e-05,0.0,0 STARLINK-4550,1 53570U 22101AV  23153.05259666  .00001214  00000-0  94345-4 0  9996,2 53570  53.2161 275.4481 0000795  80.1190 279.9892 15.08845155 43725,6917.865,95.437,540.28,539.18,0.0
53570.0,STARLINK-4550,PAYLOAD,2023-06-02 13:58:50,15.08833643,0.0001097,53.2175,273.0726,89.3267,270.7851,2.6206e-06,-2.46e-06,0.0,0 STARLINK-4550,1 53570U 22101AV  23153.58252902 -.00000246  00000-0  26206-5 0  9997,2 53570  53.2175 273.0726 0001097  89.3267 270.7851 15.08833643 44496,6917.9,95.438,540.524,539.006,0.0
